NIMIQ 2                 
1 27632U 02062A   26060.51004711 -.00000083  00000+0  00000+0 0  9993
2 27632   9.1976  58.0141 0006497 285.2437 250.4588  1.00272376 43108
ANIK F2                 
1 28378U 04027A   26060.40097200 -.00000067  00000+0  00000+0 0  9999
2 28378   3.0062  80.8937 0002863 291.1810 180.3439  1.00271815 40183
ANIK F1R                
1 28868U 05036A   26060.53472313 -.00000092  00000+0  00000+0 0  9998
2 28868   4.0375  77.9282 0002681 292.5698 234.0296  1.00271737 45379
ANIK F3                 
1 31102U 07009A   26060.51352659 -.00000019  00000+0  00000+0 0  9992
2 31102   0.9192  85.2500 0002786 257.0129 243.1908  1.00272616 45482
NIMIQ 4                 
1 33373U 08044A   26060.43085282 -.00000238  00000+0  00000+0 0  9993
2 33373   0.0234 105.3157 0002299 246.4192 240.5831  1.00271055 63904
TELSTAR 11N             
1 34111U 09009A   26060.41081439 -.00000269  00000+0  00000+0 0  9998
2 34111   0.0177 129.1285 0002633 197.3840 303.0161  1.00271180 45161
TERRESTAR-1             
1 35496U 09035A   26060.51074859 -.00000072  00000+0  00000+0 0  9995
2 35496   5.0926  48.8330 0002717 305.0769 238.2569  1.00270876 61052
NIMIQ 5                 
1 35873U 09050A   26060.43275950 -.00000275  00000+0  00000+0 0  9992
2 35873   0.0598 271.9696 0002674  68.2261 262.1006  1.00270366 60260
SKYTERRA 1              
1 37218U 10061A   26060.39773939 -.00000134  00000+0  00000+0 0  9990
2 37218   4.8958  50.9139 0001622 282.3663 227.7600  1.00271277 56119
TELSTAR 14R             
1 37602U 11021A   26060.43466618 -.00000298  00000+0  00000+0 0  9993
2 37602   0.0428 274.3169 0002423  72.8960 265.4666  1.00271362 54757
NIMIQ 6                 
1 38342U 12026A   26060.43268155 -.00000192  00000+0  00000+0 0  9990
2 38342   0.0618 278.5318 0002671  53.9264 251.4239  1.00271118 49332
ANIK G1                 
1 39127U 13014A   26060.42591280 -.00000092  00000+0  00000+0 0  9996
2 39127   0.0620 271.4730 0003162  46.1365 247.6205  1.00271266 47173
TELSTAR 12V             
1 41036U 15068A   26060.43239193 -.00000137  00000+0  00000+0 0  9992
2 41036   0.0126 109.9177 0002632 231.9111 318.0452  1.00271305 37541
VIASAT-2                
1 42740U 17029A   26060.36195251 -.00000284  00000+0  00000+0 0  9995
2 42740   0.0274 251.7130 0000583 100.8236 227.0133  1.00273134 32124
LEO 1 (LEO VANTAGE 1)   
1 43113U 18004C   26060.24983515  .00004520  00000+0  31473-3 0  9997
2 43113  99.2488 324.4740 0353573  50.7245 312.4761 14.67088378421651
TELSTAR 19V             
1 43562U 18059A   26060.43466618 -.00000298  00000+0  00000+0 0  9993
2 43562   0.0204 168.4105 0000396 246.7656 197.5066  1.00270988 28062
TELSTAR 18V             
1 43611U 18069A   26060.46155991 -.00000312  00000+0  00000+0 0  9998
2 43611   0.0207 235.4858 0002240 101.2825 126.6331  1.00272939 27552
AMOS-17                 
1 44479U 19050A   26060.30787227  .00000090  00000+0  00000+0 0  9990
2 44479   0.0399 288.6565 0001691  40.7541 317.5081  1.00269581 24103
